[{"OBJECT_NAME":"NOAA 2 (ITOS-D)","OBJECT_ID":"1972-082A","EPOCH":"2026-04-06T00:42:30.758688","MEAN_MOTION":12.5321277,"ECCENTRICITY":0.00037229,"INCLINATION":102.0138,"RA_OF_ASC_NODE":113.7972,"ARG_OF_PERICENTER":310.9626,"MEAN_ANOMALY":73.397,"EPHEMERIS_TYPE":0,"CLASSIFICATION_TYPE":"U","NORAD_CAT_ID":6235,"ELEMENT_SET_NO":999,"REV_AT_EPOCH":44591,"BSTAR":4.148821e-5,"MEAN_MOTION_DOT":-4.0e-7,"MEAN_MOTION_DDOT":0},{"OBJECT_NAME":"NOAA 4","OBJECT_ID":"1974-089A","EPOCH":"2026-04-06T00:10:30.554112","MEAN_MOTION":12.53202311,"ECCENTRICITY":0.00088266,"INCLINATION":102.0058,"RA_OF_ASC_NODE":108.0317,"ARG_OF_PERICENTER":336.8481,"MEAN_ANOMALY":38.0597,"EPHEMERIS_TYPE":0,"CLASSIFICATION_TYPE":"U","NORAD_CAT_ID":7529,"ELEMENT_SET_NO":999,"REV_AT_EPOCH":35048,"BSTAR":7.999938e-6,"MEAN_MOTION_DOT":-4.5e-7,"MEAN_MOTION_DDOT":0},{"OBJECT_NAME":"NOAA 5","OBJECT_ID":"1976-077A","EPOCH":"2026-04-05T21:55:31.836288","MEAN_MOTION":12.37829305,"ECCENTRICITY":0.00100939,"INCLINATION":102.2992,"RA_OF_ASC_NODE":81.5681,"ARG_OF_PERICENTER":111.124,"MEAN_ANOMALY":304.1192,"EPHEMERIS_TYPE":0,"CLASSIFICATION_TYPE":"U","NORAD_CAT_ID":9057,"ELEMENT_SET_NO":999,"REV_AT_EPOCH":24553,"BSTAR":7.3993493e-5,"MEAN_MOTION_DOT":-3.6e-7,"MEAN_MOTION_DDOT":0},{"OBJECT_NAME":"NOAA 6","OBJECT_ID":"1979-057A","EPOCH":"2026-04-06T02:02:25.519776","MEAN_MOTION":14.35455627,"ECCENTRICITY":0.00110015,"INCLINATION":98.5706,"RA_OF_ASC_NODE":126.0676,"ARG_OF_PERICENTER":110.2902,"MEAN_ANOMALY":249.9467,"EPHEMERIS_TYPE":0,"CLASSIFICATION_TYPE":"U","NORAD_CAT_ID":11416,"ELEMENT_SET_NO":999,"REV_AT_EPOCH":44061,"BSTAR":0.00015146158,"MEAN_MOTION_DOT":3.91e-6,"MEAN_MOTION_DDOT":0},{"OBJECT_NAME":"NOAA 8","OBJECT_ID":"1983-022A","EPOCH":"2026-04-06T01:21:57.106080","MEAN_MOTION":14.29778279,"ECCENTRICITY":0.00158758,"INCLINATION":98.7359,"RA_OF_ASC_NODE":108.9444,"ARG_OF_PERICENTER":108.4865,"MEAN_ANOMALY":251.8044,"EPHEMERIS_TYPE":0,"CLASSIFICATION_TYPE":"U","NORAD_CAT_ID":13923,"ELEMENT_SET_NO":999,"REV_AT_EPOCH":24076,"BSTAR":8.8339225e-5,"MEAN_MOTION_DOT":1.82e-6,"MEAN_MOTION_DDOT":0},{"OBJECT_NAME":"NOAA 9","OBJECT_ID":"1984-123A","EPOCH":"2026-04-06T00:49:04.740960","MEAN_MOTION":14.17048643,"ECCENTRICITY":0.00145073,"INCLINATION":99.106,"RA_OF_ASC_NODE":120.9785,"ARG_OF_PERICENTER":190.4085,"MEAN_ANOMALY":190.105,"EPHEMERIS_TYPE":0,"CLASSIFICATION_TYPE":"U","NORAD_CAT_ID":15427,"ELEMENT_SET_NO":999,"REV_AT_EPOCH":13320,"BSTAR":9.7440575e-5,"MEAN_MOTION_DOT":1.49e-6,"MEAN_MOTION_DDOT":0},{"OBJECT_NAME":"NOAA 10","OBJECT_ID":"1986-073A","EPOCH":"2026-04-05T23:32:00.492000","MEAN_MOTION":14.29155846,"ECCENTRICITY":0.00115475,"INCLINATION":98.7025,"RA_OF_ASC_NODE":89.3244,"ARG_OF_PERICENTER":202.5679,"MEAN_ANOMALY":179.2936,"EPHEMERIS_TYPE":0,"CLASSIFICATION_TYPE":"U","NORAD_CAT_ID":16969,"ELEMENT_SET_NO":999,"REV_AT_EPOCH":5910,"BSTAR":8.7931847e-5,"MEAN_MOTION_DOT":1.79e-6,"MEAN_MOTION_DDOT":0},{"OBJECT_NAME":"NOAA 11","OBJECT_ID":"1988-089A","EPOCH":"2026-04-06T06:39:10.421280","MEAN_MOTION":14.15827264,"ECCENTRICITY":0.00116774,"INCLINATION":98.614,"RA_OF_ASC_NODE":44.3947,"ARG_OF_PERICENTER":140.1204,"MEAN_ANOMALY":220.083,"EPHEMERIS_TYPE":0,"CLASSIFICATION_TYPE":"U","NORAD_CAT_ID":19531,"ELEMENT_SET_NO":999,"REV_AT_EPOCH":93730,"BSTAR":6.0245318e-5,"MEAN_MOTION_DOT":7.6e-7,"MEAN_MOTION_DDOT":0},{"OBJECT_NAME":"NOAA 12","OBJECT_ID":"1991-032A","EPOCH":"2026-04-06T05:52:17.176800","MEAN_MOTION":14.26726912,"ECCENTRICITY":0.00126479,"INCLINATION":98.6181,"RA_OF_ASC_NODE":85.8226,"ARG_OF_PERICENTER":236.1238,"MEAN_ANOMALY":123.874,"EPHEMERIS_TYPE":0,"CLASSIFICATION_TYPE":"U","NORAD_CAT_ID":21263,"ELEMENT_SET_NO":999,"REV_AT_EPOCH":81470,"BSTAR":7.4005361e-5,"MEAN_MOTION_DOT":1.36e-6,"MEAN_MOTION_DDOT":0},{"OBJECT_NAME":"NOAA 14","OBJECT_ID":"1994-089A","EPOCH":"2026-04-06T02:59:26.898432","MEAN_MOTION":14.14661767,"ECCENTRICITY":0.00084171,"INCLINATION":98.5068,"RA_OF_ASC_NODE":69.0448,"ARG_OF_PERICENTER":294.1617,"MEAN_ANOMALY":65.8677,"EPHEMERIS_TYPE":0,"CLASSIFICATION_TYPE":"U","NORAD_CAT_ID":23455,"ELEMENT_SET_NO":999,"REV_AT_EPOCH":61301,"BSTAR":6.165163e-5,"MEAN_MOTION_DOT":7.7e-7,"MEAN_MOTION_DDOT":0},{"OBJECT_NAME":"NOAA 15","OBJECT_ID":"1998-030A","EPOCH":"2026-04-06T06:03:30.816864","MEAN_MOTION":14.27124286,"ECCENTRICITY":0.00100017,"INCLINATION":98.513,"RA_OF_ASC_NODE":118.8104,"ARG_OF_PERICENTER":191.7751,"MEAN_ANOMALY":168.3198,"EPHEMERIS_TYPE":0,"CLASSIFICATION_TYPE":"U","NORAD_CAT_ID":25338,"ELEMENT_SET_NO":999,"REV_AT_EPOCH":45103,"BSTAR":9.0200493e-5,"MEAN_MOTION_DOT":1.77e-6,"MEAN_MOTION_DDOT":0}]
