{"fetched_at":"2026-04-07T02:14:38Z","count":15750,"tles":[{"name":"NOAA 15","line1":"1 25338U 98030A   26096.25244001  .00000177  00000+0  90200-4 0  9991","line2":"2 25338  98.5130 118.8104 0010001 191.7751 168.3198 14.27124286451031","category":"Weather"},{"name":"NOAA 2 (ITOS-D)","line1":"1 06235U 72082A   26096.02952267 -.00000040  00000+0  41488-4 0  9994","line2":"2 06235 102.0138 113.7972 0003722 310.9626  73.3970 12.53212770445916","category":"Weather"},{"name":"NOAA 9","line1":"1 15427U 84123A   26096.03408265  .00000149  00000+0  97441-4 0  9990","line2":"2 15427  99.1060 120.9785 0014507 190.4085 190.1050 14.17048643133205","category":"Weather"},{"name":"NOAA 6","line1":"1 11416U 79057A   26096.08501759  .00000391  00000+0  15146-3 0  9991","line2":"2 11416  98.5706 126.0676 0011001 110.2902 249.9467 14.35455627440614","category":"Weather"},{"name":"NOAA 10","line1":"1 16969U 86073A   26095.98056125  .00000179  00000+0  87932-4 0  9992","line2":"2 16969  98.7025  89.3244 0011547 202.5679 179.2936 14.29155846 59100","category":"Weather"},{"name":"NOAA 12","line1":"1 21263U 91032A   26096.24464325  .00000136  00000+0  74005-4 0  9991","line2":"2 21263  98.6181  85.8226 0012647 236.1238 123.8740 14.26726912814700","category":"Weather"},{"name":"NOAA 4","line1":"1 07529U 74089A   26096.00729808 -.00000045  00000+0  79999-5 0  9995","line2":"2 07529 102.0058 108.0317 0008826 336.8481  38.0597 12.53202311350480","category":"Weather"},{"name":"NOAA 5","line1":"1 09057U 76077A   26095.91356292 -.00000036  00000+0  73993-4 0  9991","line2":"2 09057 102.2992  81.5681 0010093 111.1240 304.1192 12.37829305245539","category":"Weather"},{"name":"NOAA 11","line1":"1 19531U 88089A   26096.27720395  .00000076  00000+0  60245-4 0  9993","line2":"2 19531  98.6140  44.3947 0011677 140.1204 220.0830 14.15827264937301","category":"Weather"},{"name":"NOAA 8","line1":"1 13923U 83022A   26096.05691095  .00000182  00000+0  88339-4 0  9996","line2":"2 13923  98.7359 108.9444 0015875 108.4865 251.8044 14.29778279240768","category":"Weather"},{"name":"NOAA 14","line1":"1 23455U 94089A   26096.12461688  .00000077  00000+0  61652-4 0  9995","line2":"2 23455  98.5068  69.0448 0008417 294.1617  65.8677 14.14661767613011","category":"Weather"}]}